{
    "links": {
        "self": "http://www.neowsapp.com/rest/v1/neo/3799856?api_key=iIulBulltgU6a56xZRHN4H3l9WmuAYTsLGpBGhQ2"
    },
    "id": "3799856",
    "neo_reference_id": "3799856",
    "name": "(2018 ER2)",
    "designation": "2018 ER2",
    "nasa_jpl_url": "http://ssd.jpl.nasa.gov/sbdb.cgi?sstr=3799856",
    "absolute_magnitude_h": 24.3,
    "estimated_diameter": {
        "kilometers": {
            "estimated_diameter_min": 0.0366906138,
            "estimated_diameter_max": 0.0820427065
        },
        "meters": {
            "estimated_diameter_min": 36.6906137531,
            "estimated_diameter_max": 82.0427064882
        },
        "miles": {
            "estimated_diameter_min": 0.0227984834,
            "estimated_diameter_max": 0.0509789586
        },
        "feet": {
            "estimated_diameter_min": 120.3760332259,
            "estimated_diameter_max": 269.1689931548
        }
    },
    "is_potentially_hazardous_asteroid": false,
    "close_approach_data": [
        {
            "close_approach_date": "2018-03-02",
            "close_approach_date_full": "2018-Mar-02 05:40",
            "epoch_date_close_approach": 1519969200000,
            "relative_velocity": {
                "kilometers_per_second": "2.7741584424",
                "kilometers_per_hour": "9986.9703927535",
                "miles_per_hour": "6205.5150198751"
            },
            "miss_distance": {
                "astronomical": "0.2168394422",
                "lunar": "84.3505430158",
                "kilometers": "32438718.685108114",
                "miles": "20156485.1222914132"
            },
            "orbiting_body": "Earth"
        }
    ],
    "orbital_data": {
        "orbit_id": "2",
        "orbit_determination_date": "2018-03-27 06:20:40",
        "first_observation_date": "2018-03-07",
        "last_observation_date": "2018-03-27",
        "data_arc_in_days": 20,
        "observations_used": 13,
        "orbit_uncertainty": "9",
        "minimum_orbit_intersection": ".216623",
        "jupiter_tisserand_invariant": "3.687",
        "epoch_osculation": "2458185.5",
        "eccentricity": ".4122811623017884",
        "semi_major_axis": "2.042123525785799",
        "inclination": "4.027342833290205",
        "ascending_node_longitude": "22.85075838049862",
        "orbital_period": "1065.91221639136",
        "perihelion_distance": "1.200194465011004",
        "perihelion_argument": "133.2712472624654",
        "aphelion_distance": "2.884052586560595",
        "perihelion_time": "2458173.582274925550",
        "mean_anomaly": "4.025079139562791",
        "mean_motion": ".3377388817427933",
        "equinox": "J2000",
        "orbit_class": {
            "orbit_class_type": "AMO",
            "orbit_class_description": "Near-Earth asteroid orbits similar to that of 1221 Amor",
            "orbit_class_range": "1.017 AU < q (perihelion) < 1.3 AU"
        }
    },
    "is_sentry_object": false
}